KUIPER-00061            
1 64521U 25134X   25253.18426943  .00022142  00000+0  86451-3 0  9994
2 64521  51.8783 311.8639 0008388  37.2364 322.9198 15.25793059 13324
KUIPER-00062            
1 64522U 25134Y   25253.19102833  .00010828  00000+0  73143-3 0  9997
2 64522  51.8869 317.1468 0010612  45.5068 314.6772 15.07014209 13267
KUIPER-00063            
1 64523U 25134Z   25253.00003472 -.01081569  00000+0 -99025-1 0  9995
2 64523  51.9032 317.4077 0006933 356.0672 287.3814 14.97618919  5532
KUIPER-00064            
1 64524U 25134AA  25253.58335648 -.00939332  00000+0 -67779-1 0  9992
2 64524  51.8897 312.8823 0006354  97.3101  16.4008 15.06635872  5060
KUIPER-00065            
1 64525U 25134AB  25253.58335648  .00033071  00000+0  32807-2 0  9991
2 64525  51.9034 316.9608 0010421  44.9479  22.4298 14.91438471  5019
KUIPER-00066            
1 64526U 25134AC  25252.88018845  .00008397  00000+0  42314-3 0  9999
2 64526  51.8890 315.7762 0005656  25.2001 334.9253 15.17947452 13254
KUIPER-00069            
1 64816U 25151A   25253.34638557  .00047056  00000+0  12801-2 0  9992
2 64816  51.8807  16.9851 0006881 344.6086  15.4691 15.37044930  9797
KUIPER-00070            
1 64817U 25151B   25253.58335648 -.00036118  00000+0 -31817-2 0  9991
2 64817  51.8968  22.3760 0008652  18.0029 291.6351 14.95945438  3592
