<?xml version="1.0" encoding="UTF-8"?>
<ndm xmlns:xsi="http://www.w3.org/2001/XMLSchema-instance" xsi:noNamespaceSchemaLocation="https://sanaregistry.org/r/ndmxml_unqualified/ndmxml-2.0.0-master-2.0.xsd">
<omm id="CCSDS_OMM_VERS" version="2.0">
<header><CREATION_DATE/><ORIGINATOR/></header><body><segment><metadata><OBJECT_NAME>KUIPER-00061</OBJECT_NAME><OBJECT_ID>2025-134X</OBJECT_ID><CENTER_NAME>EARTH</CENTER_NAME><REF_FRAME>TEME</REF_FRAME><TIME_SYSTEM>UTC</TIME_SYSTEM><MEAN_ELEMENT_THEORY>SGP4</MEAN_ELEMENT_THEORY></metadata><data><meanElements><EPOCH>2025-09-10T04:25:20.878752</EPOCH><MEAN_MOTION>15.25793059</MEAN_MOTION><ECCENTRICITY>.00083889</ECCENTRICITY><INCLINATION>51.8783</INCLINATION><RA_OF_ASC_NODE>311.8639</RA_OF_ASC_NODE><ARG_OF_PERICENTER>37.2364</ARG_OF_PERICENTER><MEAN_ANOMALY>322.9198</MEAN_ANOMALY></meanElements><tleParameters><EPHEMERIS_TYPE>0</EPHEMERIS_TYPE><CLASSIFICATION_TYPE>U</CLASSIFICATION_TYPE><NORAD_CAT_ID>64521</NORAD_CAT_ID><ELEMENT_SET_NO>999</ELEMENT_SET_NO><REV_AT_EPOCH>1332</REV_AT_EPOCH><BSTAR>.86450787E-3</BSTAR><MEAN_MOTION_DOT>.22142E-3</MEAN_MOTION_DOT><MEAN_MOTION_DDOT>0</MEAN_MOTION_DDOT></tleParameters></data></segment></body></omm>
<omm id="CCSDS_OMM_VERS" version="2.0">
<header><CREATION_DATE/><ORIGINATOR/></header><body><segment><metadata><OBJECT_NAME>KUIPER-00062</OBJECT_NAME><OBJECT_ID>2025-134Y</OBJECT_ID><CENTER_NAME>EARTH</CENTER_NAME><REF_FRAME>TEME</REF_FRAME><TIME_SYSTEM>UTC</TIME_SYSTEM><MEAN_ELEMENT_THEORY>SGP4</MEAN_ELEMENT_THEORY></metadata><data><meanElements><EPOCH>2025-09-10T04:35:04.847712</EPOCH><MEAN_MOTION>15.07014209</MEAN_MOTION><ECCENTRICITY>.00106122</ECCENTRICITY><INCLINATION>51.8869</INCLINATION><RA_OF_ASC_NODE>317.1468</RA_OF_ASC_NODE><ARG_OF_PERICENTER>45.5068</ARG_OF_PERICENTER><MEAN_ANOMALY>314.6772</MEAN_ANOMALY></meanElements><tleParameters><EPHEMERIS_TYPE>0</EPHEMERIS_TYPE><CLASSIFICATION_TYPE>U</CLASSIFICATION_TYPE><NORAD_CAT_ID>64522</NORAD_CAT_ID><ELEMENT_SET_NO>999</ELEMENT_SET_NO><REV_AT_EPOCH>1326</REV_AT_EPOCH><BSTAR>.73143219E-3</BSTAR><MEAN_MOTION_DOT>.10828E-3</MEAN_MOTION_DOT><MEAN_MOTION_DDOT>0</MEAN_MOTION_DDOT></tleParameters></data></segment></body></omm>
<omm id="CCSDS_OMM_VERS" version="2.0">
<header><CREATION_DATE/><ORIGINATOR/></header><body><segment><metadata><OBJECT_NAME>KUIPER-00063</OBJECT_NAME><OBJECT_ID>2025-134Z</OBJECT_ID><CENTER_NAME>EARTH</CENTER_NAME><REF_FRAME>TEME</REF_FRAME><TIME_SYSTEM>UTC</TIME_SYSTEM><MEAN_ELEMENT_THEORY>SGP4</MEAN_ELEMENT_THEORY></metadata><data><meanElements><EPOCH>2025-09-10T00:00:02.999808</EPOCH><MEAN_MOTION>14.97618919</MEAN_MOTION><ECCENTRICITY>.00069338</ECCENTRICITY><INCLINATION>51.9032</INCLINATION><RA_OF_ASC_NODE>317.4077</RA_OF_ASC_NODE><ARG_OF_PERICENTER>356.0672</ARG_OF_PERICENTER><MEAN_ANOMALY>287.3814</MEAN_ANOMALY></meanElements><tleParameters><EPHEMERIS_TYPE>0</EPHEMERIS_TYPE><CLASSIFICATION_TYPE>U</CLASSIFICATION_TYPE><NORAD_CAT_ID>64523</NORAD_CAT_ID><ELEMENT_SET_NO>999</ELEMENT_SET_NO><REV_AT_EPOCH>553</REV_AT_EPOCH><BSTAR>-.99025448E-1</BSTAR><MEAN_MOTION_DOT>-.1081569E-1</MEAN_MOTION_DOT><MEAN_MOTION_DDOT>0</MEAN_MOTION_DDOT></tleParameters></data></segment></body></omm>
<omm id="CCSDS_OMM_VERS" version="2.0">
<header><CREATION_DATE/><ORIGINATOR/></header><body><segment><metadata><OBJECT_NAME>KUIPER-00064</OBJECT_NAME><OBJECT_ID>2025-134AA</OBJECT_ID><CENTER_NAME>EARTH</CENTER_NAME><REF_FRAME>TEME</REF_FRAME><TIME_SYSTEM>UTC</TIME_SYSTEM><MEAN_ELEMENT_THEORY>SGP4</MEAN_ELEMENT_THEORY></metadata><data><meanElements><EPOCH>2025-09-10T14:00:01.999872</EPOCH><MEAN_MOTION>15.06635872</MEAN_MOTION><ECCENTRICITY>.00063542</ECCENTRICITY><INCLINATION>51.8897</INCLINATION><RA_OF_ASC_NODE>312.8823</RA_OF_ASC_NODE><ARG_OF_PERICENTER>97.3101</ARG_OF_PERICENTER><MEAN_ANOMALY>16.4008</MEAN_ANOMALY></meanElements><tleParameters><EPHEMERIS_TYPE>0</EPHEMERIS_TYPE><CLASSIFICATION_TYPE>U</CLASSIFICATION_TYPE><NORAD_CAT_ID>64524</NORAD_CAT_ID><ELEMENT_SET_NO>999</ELEMENT_SET_NO><REV_AT_EPOCH>506</REV_AT_EPOCH><BSTAR>-.67778704E-1</BSTAR><MEAN_MOTION_DOT>-.939332E-2</MEAN_MOTION_DOT><MEAN_MOTION_DDOT>0</MEAN_MOTION_DDOT></tleParameters></data></segment></body></omm>
<omm id="CCSDS_OMM_VERS" version="2.0">
<header><CREATION_DATE/><ORIGINATOR/></header><body><segment><metadata><OBJECT_NAME>KUIPER-00065</OBJECT_NAME><OBJECT_ID>2025-134AB</OBJECT_ID><CENTER_NAME>EARTH</CENTER_NAME><REF_FRAME>TEME</REF_FRAME><TIME_SYSTEM>UTC</TIME_SYSTEM><MEAN_ELEMENT_THEORY>SGP4</MEAN_ELEMENT_THEORY></metadata><data><meanElements><EPOCH>2025-09-10T14:00:01.999872</EPOCH><MEAN_MOTION>14.91438471</MEAN_MOTION><ECCENTRICITY>.00104214</ECCENTRICITY><INCLINATION>51.9034</INCLINATION><RA_OF_ASC_NODE>316.9608</RA_OF_ASC_NODE><ARG_OF_PERICENTER>44.9479</ARG_OF_PERICENTER><MEAN_ANOMALY>22.4298</MEAN_ANOMALY></meanElements><tleParameters><EPHEMERIS_TYPE>0</EPHEMERIS_TYPE><CLASSIFICATION_TYPE>U</CLASSIFICATION_TYPE><NORAD_CAT_ID>64525</NORAD_CAT_ID><ELEMENT_SET_NO>999</ELEMENT_SET_NO><REV_AT_EPOCH>501</REV_AT_EPOCH><BSTAR>.32806988E-2</BSTAR><MEAN_MOTION_DOT>.33071E-3</MEAN_MOTION_DOT><MEAN_MOTION_DDOT>0</MEAN_MOTION_DDOT></tleParameters></data></segment></body></omm>
<omm id="CCSDS_OMM_VERS" version="2.0">
<header><CREATION_DATE/><ORIGINATOR/></header><body><segment><metadata><OBJECT_NAME>KUIPER-00066</OBJECT_NAME><OBJECT_ID>2025-134AC</OBJECT_ID><CENTER_NAME>EARTH</CENTER_NAME><REF_FRAME>TEME</REF_FRAME><TIME_SYSTEM>UTC</TIME_SYSTEM><MEAN_ELEMENT_THEORY>SGP4</MEAN_ELEMENT_THEORY></metadata><data><meanElements><EPOCH>2025-09-09T21:07:28.282080</EPOCH><MEAN_MOTION>15.17947452</MEAN_MOTION><ECCENTRICITY>.00056567</ECCENTRICITY><INCLINATION>51.8890</INCLINATION><RA_OF_ASC_NODE>315.7762</RA_OF_ASC_NODE><ARG_OF_PERICENTER>25.2001</ARG_OF_PERICENTER><MEAN_ANOMALY>334.9253</MEAN_ANOMALY></meanElements><tleParameters><EPHEMERIS_TYPE>0</EPHEMERIS_TYPE><CLASSIFICATION_TYPE>U</CLASSIFICATION_TYPE><NORAD_CAT_ID>64526</NORAD_CAT_ID><ELEMENT_SET_NO>999</ELEMENT_SET_NO><REV_AT_EPOCH>1325</REV_AT_EPOCH><BSTAR>.4231407E-3</BSTAR><MEAN_MOTION_DOT>.8397E-4</MEAN_MOTION_DOT><MEAN_MOTION_DDOT>0</MEAN_MOTION_DDOT></tleParameters></data></segment></body></omm>
<omm id="CCSDS_OMM_VERS" version="2.0">
<header><CREATION_DATE/><ORIGINATOR/></header><body><segment><metadata><OBJECT_NAME>KUIPER-00069</OBJECT_NAME><OBJECT_ID>2025-151A</OBJECT_ID><CENTER_NAME>EARTH</CENTER_NAME><REF_FRAME>TEME</REF_FRAME><TIME_SYSTEM>UTC</TIME_SYSTEM><MEAN_ELEMENT_THEORY>SGP4</MEAN_ELEMENT_THEORY></metadata><data><meanElements><EPOCH>2025-09-10T08:18:47.713248</EPOCH><MEAN_MOTION>15.37044930</MEAN_MOTION><ECCENTRICITY>.00068818</ECCENTRICITY><INCLINATION>51.8807</INCLINATION><RA_OF_ASC_NODE>16.9851</RA_OF_ASC_NODE><ARG_OF_PERICENTER>344.6086</ARG_OF_PERICENTER><MEAN_ANOMALY>15.4691</MEAN_ANOMALY></meanElements><tleParameters><EPHEMERIS_TYPE>0</EPHEMERIS_TYPE><CLASSIFICATION_TYPE>U</CLASSIFICATION_TYPE><NORAD_CAT_ID>64816</NORAD_CAT_ID><ELEMENT_SET_NO>999</ELEMENT_SET_NO><REV_AT_EPOCH>979</REV_AT_EPOCH><BSTAR>.12800717E-2</BSTAR><MEAN_MOTION_DOT>.47056E-3</MEAN_MOTION_DOT><MEAN_MOTION_DDOT>0</MEAN_MOTION_DDOT></tleParameters></data></segment></body></omm>
<omm id="CCSDS_OMM_VERS" version="2.0">
<header><CREATION_DATE/><ORIGINATOR/></header><body><segment><metadata><OBJECT_NAME>KUIPER-00070</OBJECT_NAME><OBJECT_ID>2025-151B</OBJECT_ID><CENTER_NAME>EARTH</CENTER_NAME><REF_FRAME>TEME</REF_FRAME><TIME_SYSTEM>UTC</TIME_SYSTEM><MEAN_ELEMENT_THEORY>SGP4</MEAN_ELEMENT_THEORY></metadata><data><meanElements><EPOCH>2025-09-10T14:00:01.999872</EPOCH><MEAN_MOTION>14.95945438</MEAN_MOTION><ECCENTRICITY>.00086528</ECCENTRICITY><INCLINATION>51.8968</INCLINATION><RA_OF_ASC_NODE>22.3760</RA_OF_ASC_NODE><ARG_OF_PERICENTER>18.0029</ARG_OF_PERICENTER><MEAN_ANOMALY>291.6351</MEAN_ANOMALY></meanElements><tleParameters><EPHEMERIS_TYPE>0</EPHEMERIS_TYPE><CLASSIFICATION_TYPE>U</CLASSIFICATION_TYPE><NORAD_CAT_ID>64817</NORAD_CAT_ID><ELEMENT_SET_NO>999</ELEMENT_SET_NO><REV_AT_EPOCH>359</REV_AT_EPOCH><BSTAR>-.31817062E-2</BSTAR><MEAN_MOTION_DOT>-.36118E-3</MEAN_MOTION_DOT><MEAN_MOTION_DDOT>0</MEAN_MOTION_DDOT></tleParameters></data></segment></body></omm>

</ndm>
